[{"OBJECT_NAME":"STARLINK-30767","OBJECT_ID":"2023-162J","EPOCH":"2026-03-09T11:39:41.183712","MEAN_MOTION":15.27579061,"ECCENTRICITY":0.00020936,"INCLINATION":43.0034,"RA_OF_ASC_NODE":130.4317,"ARG_OF_PERICENTER":288.3011,"MEAN_ANOMALY":71.7612,"EPHEMERIS_TYPE":0,"CLASSIFICATION_TYPE":"U","NORAD_CAT_ID":58126,"ELEMENT_SET_NO":999,"REV_AT_EPOCH":13231,"BSTAR":-7.7393505e-5,"MEAN_MOTION_DOT":-2.392e-5,"MEAN_MOTION_DDOT":0},{"OBJECT_NAME":"QAEM 100 R\/B","OBJECT_ID":"2024-165A","EPOCH":"2026-03-09T23:28:11.930304","MEAN_MOTION":15.14187295,"ECCENTRICITY":0.0059581,"INCLINATION":64.0756,"RA_OF_ASC_NODE":359.5576,"ARG_OF_PERICENTER":312.0209,"MEAN_ANOMALY":47.5844,"EPHEMERIS_TYPE":0,"CLASSIFICATION_TYPE":"U","NORAD_CAT_ID":61071,"ELEMENT_SET_NO":999,"REV_AT_EPOCH":8183,"BSTAR":0.0003372463,"MEAN_MOTION_DOT":6.252e-5,"MEAN_MOTION_DDOT":0}]
